{
  "norad_id": 65406,
  "name": "STARLINK-35036",
  "history": [
    {
      "epoch": "2026-03-28T10:30:56.103840",
      "apogee_km": 476.0922760497888,
      "perigee_km": 474.37482139027907,
      "latitude_deg": -53.151823673157466,
      "longitude_deg": 42.66233760025352,
      "semi_major_axis_km": 6853.370548720033,
      "eccentricity": 0.0001253,
      "inclination_deg": 53.1598,
      "raan_deg": 145.3451,
      "arg_perigee_deg": 83.0877,
      "mean_anomaly_deg": 277.0266,
      "mean_motion_rev_day": 15.30193811
    }
  ]
}