{"fetched_at":"2026-03-30T06:02:59Z","count":15439,"tles":[{"name":"STARLINK-35036","line1":"1 65406U 25192C   26087.43814935  .00021018  00000+0  71987-3 0  9996","line2":"2 65406  53.1598 145.3451 0001253  83.0877 277.0266 15.30193811 32255","category":"Starlink"}]}